IRIDIUM 171             
1 43929U 19002H   24071.49739625  .00000329  00000+0  11046-3 0  9996
2 43929  86.4026 339.7105 0002324  83.3030 276.8430 14.34217759270328
IRIDIUM 170             
1 43930U 19002J   24071.45415937  .00001407  00000+0  21899-3 0  9996
2 43930  86.6144 339.5641 0002729  84.4355 275.7174 14.72306096277478
IRIDIUM 167             
1 43931U 19002K   24071.49105292  .00000124  00000+0  37316-4 0  9998
2 43931  86.4018 339.5137 0002251  83.0978 277.0473 14.34216672270325
IRIDIUM 181             
1 56726U 23068S   24071.85579041  .00000539  00000+0  15335-3 0  9994
2 56726  86.8662  28.3249 0002969  85.6495 274.5046 14.43611499 43091
IRIDIUM 177             
1 56727U 23068T   24071.33803562  .00002111  00000+0  27418-3 0  9999
2 56727  86.2034   1.8096 0002691  88.6125 271.5404 14.80251195 43909
IRIDIUM 174             
1 56728U 23068U   24071.53541568  .00002149  00000+0  27921-3 0  9997
2 56728  86.2040   1.8117 0002602  90.5202 269.6317 14.80251863 43937
IRIDIUM 178             
1 56729U 23068V   24071.80042121  .00002032  00000+0  26383-3 0  9991
2 56729  86.5836  14.5216 0002545  90.4301 269.7212 14.80253518 43978
IRIDIUM 179             
1 56730U 23068W   24071.59220852  .00002031  00000+0  26373-3 0  9996
2 56730  86.6842  17.5124 0002657  92.3234 267.8292 14.80251792 43945
